#dP2021  6  9  6  0  0.00000000      96 __u+U ITR00 EXT  IAC
## 2161 280800.00000000   900.00000000 59374 0.2500000000000
+  115   C06C07C08C09C11C12C13C14C16C19C20C21C22C23C24C25C26
+        C27C28C29C30C32C33C34C35C36C37C38C39C40C41C42C43C44
+        C45C46E01E02E03E04E05E07E08E09E11E12E13E14E15E18E19
+        E21E24E25E26E27E30E31E33E36G01G02G03G04G05G06G07G08
+        G09G10G12G13G14G15G16G17G18G19G20G21G22G23G24G25G26
+        G27G28G29G30G31G32J01J02J03R01R02R03R04R05R07R08R09
+        R11R12R13R14R15R16R17R18R19R20R21R22R24  0  0  0  0
++         8 10 13  9  8  8 16  9 10  9  9  8  8  9  9  7  7
++         9  9  8  9  8  8  8  7  9  8 10 10 10  8  8 10 10
++         9  8  8  8  9  8  8  8  8  8  8  9  9  8  9  8  8
++         8  7  8  9  8 10  8  9  8  7  9  7  7  8  7  9  9
++         7  7  9  8  8  8  7  8  8  8  8 10  7  7  8  7  8
++         8  7  8  8  7  8 10 10  9  9  9  8  7  7  8 10  9
++         8  9  9 10  9  8  7  7  8 10  8  9  8  0  0  0  0
%c M  cc GPS ccc cccc cccc cccc cccc ccccc ccccc ccccc ccccc
%c cc cc ccc ccc cccc cccc cccc cccc ccccc ccccc ccccc ccccc
%f  0.0000000  0.000000000  0.00000000000  0.000000000000000
%f  0.0000000  0.000000000  0.00000000000  0.000000000000000
%i    0    0    0    0      0      0      0      0         0
%i    0    0    0    0      0      0      0      0         0
/* IAC                                ULTRA-RAPID PREDICTION
/* S/V CLOCKS ARE ALIGNED TO GNSS TIME                      
/* G:C1WC2W R:C1PC2P E:C1XC5X C:C2IC6I J:C1CC2S             
/* PCV:IGS14_2148 OL/AL:FES2004  NONE     YN ORB:CoN CLK:CoN
*  2021 06 09 21 45  0.00000000
PC06 -23027.059806  33594.988016  10343.551840    484.158852
PC07  -8809.294515  33498.422564  24656.689473     90.752329
PC08 -14927.677217  17550.916258 -35277.373902   -893.387904
PC09 -11396.874887  33175.561678  23383.749991    460.250710
PC11   8044.366058  13091.611690 -23241.552101    390.397003
PC12  -9637.241742  21112.661182 -15483.224943    850.279680
PC13  -1085.281443  22738.482099 -35381.506705    293.803093
PC14  11061.627755  23868.584541   9431.313443    918.447838
PC16 -21231.955409  34151.734051  12431.872630   -888.917660
PC19 -14993.590597 -16144.774991 -17081.338703    866.544480
PC20  -6295.138221 -27102.715284  -1846.082726   -882.697628
PC21  -6637.294130  22408.267036 -15249.428785   -936.149212
PC22 -15277.409962   4563.934219 -22896.466643   -950.943439
PC23  25105.605852    -44.320729 -12180.636599   -930.730683
PC24   8736.168835  18016.979349  19426.313410   -886.097224
PC25  24840.143071  11853.465248   4546.591490   -903.492793
PC26 -10230.264145  13312.779581  22288.715500    895.005828
PC27  17222.255084 -20677.275626   7401.181319    545.687755
PC28  23815.473741 -10392.846382 -10172.168002    -64.229363
PC29 -16664.445915  -5349.343588  21723.071440    403.931106
PC30    346.734979 -19098.701403  20342.007610    470.114260
PC32   6528.665415 -22408.023761  15304.696477   -926.119163
PC33  15106.403228  16149.146506  17045.909950   -936.644818
PC34    426.547028  18749.045552 -20670.612086   -654.060903
PC35 -23440.040094  10904.178477  10453.977460   -240.814524
PC36 -24409.700805 -12605.464452  -4862.959937   -727.193251
PC37  11420.574267 -12607.126611 -22099.757825   -877.725242
PC38 -11491.846720  21280.439200 -34534.636694    154.250918
PC39 -17709.819319  35626.182799  13738.573965     31.688274
PC40  -2342.078583  37827.947580  18656.488235    169.414251
PC41  15416.164486  -4223.818030  22926.748889   -946.745365
PC42   5905.179305  27262.193907   1187.832078   -913.466959
PC43  16360.240162   5971.335875 -21819.973855   -769.095153
PC44 -16571.717854  21236.891005  -7235.602670    231.355849
PC45 -25036.661844    137.280614  12348.019141    462.953697
PC46  -9933.889001 -17916.682324 -18953.743190    231.735328
PE01  19374.149742  -1135.858489 -22348.598211  -1125.864726
PE02 -19312.153184   1254.110644  22399.395577    224.993335
PE03 -18360.614958  12724.618364 -19422.621856   -440.209649
PE04  11271.370742 -27097.953208   3848.043228   -789.018566
PE05 -14784.389625  -9382.634863 -23855.786488   -274.222354
PE07   2642.253478  25768.141868  14349.058886   -547.948030
PE08 -10909.118111  27298.866131  -3519.893491   5988.559952
PE09  -2802.315799 -25622.632660 -14527.108643   5639.066291
PE11  -6647.703884 -14979.045553  24635.322229   5871.467989
PE12  15854.526262 -16377.643136  18889.660130   5168.149332
PE13   6216.418610  15023.875280 -24736.279517    417.533045
PE14   7519.502914  22658.353288 -22137.899599  -1460.594064
PE15 -15750.946713  16382.118860 -18961.540536    809.683527
PE18  -5191.960435 -16312.420150  15914.095235  -1599.608663
PE19  18422.029216 -10356.961225  20736.487252    298.249207
PE21  23185.304209  15870.271756  -9318.502074   -669.763196
PE24 -12927.731684 -24543.658582 -10363.960344   -946.136177
PE25 -23156.364354 -16015.246400   9140.927267   -536.440669
PE26  24986.429397   4495.784788 -15222.250600   1711.858626
PE27  13700.081867  24410.535119   9622.108292    -50.821193
PE30  -4786.927986  17905.983709  23069.040099   2876.527299
PE31   3759.836799 -18539.643516 -22758.795175   -482.043962
PE33  28405.897995  -8092.497627   2034.916841   -469.424812
PE36 -24465.842747  -4828.153985  15936.193450   -218.751380
PG01  10684.709772  13438.092468 -20626.974019    663.423127
PG02  14744.238759 -14020.168489  17755.801604   -611.120529
PG03  12175.174949  23484.749114  -3078.952360   -187.511323
PG04   3470.425183  19213.090899  17990.135300   -199.359311
PG05  -1745.254667 -21578.531403  15110.740248    -44.475433
PG06  24005.295284  -6890.935908   9186.987899     25.029835
PG07  23034.504901   7707.293186  11669.924100    174.036314
PG08  -3977.296383  23879.786106 -10574.040637    -24.475425
PG09  12445.301374   9246.139695  21506.545140   -350.283553
PG10 -17731.427333  -3067.981652 -19508.660464   -139.122804
PG12  -9401.723220 -24526.356039  -4668.643717    -52.781726
PG13  12583.430369 -22899.586555  -4465.962867    142.825100
PG14  17728.392106   3466.662960 -19492.837893     72.101020
PG15    654.030013 -24174.357513 -10934.371521   -143.504743
PG16  -4540.479497  18390.510709  18176.163368   -338.735516
PG17  18018.684274  -6380.460588 -18014.978774    455.924156
PG18 -24589.434152  -5521.365471   8485.490763    347.451580
PG19  19239.253648 -13614.673045 -12403.526551     11.262749
PG20  -3986.007976 -21653.985750  15001.653351    521.323197
PG21   2442.881259  14773.819389 -21241.598264    123.957567
PG22   6780.899581  22873.364837 -11695.821078   -592.584632
PG23 -19248.074902 -13572.328088 -12349.933212     98.548487
PG24  -5679.595208 -15212.582740 -21307.479755    124.370916
PG25 -17228.911276 -19365.746696   6142.352170    152.950305
PG26 -11669.160639  10454.991740  21372.244099     96.333285
PG27 -12045.957087  23441.957302   -535.900755   -144.497967
PG28  14875.530186  -2661.551203 -21276.288307    557.304891
PG29 -10622.621393 -10494.008155  21909.903506   -361.464362
PG30  26663.359204   -851.015963   -811.867044   -436.982190
PG31 -22703.243206   8291.009818  11440.661364   -122.153881
PG32 -18192.888632   9301.044137 -16761.465621     19.017147
PJ01 -21487.246757  28794.932548 -17504.153648   -392.989475
PJ02 -25667.429150  21558.949277  30522.809482     -0.190082
PJ03 -34569.712083  23938.010321   1907.722136     -7.649140
PR01  -1578.982644 -25324.775324  -2521.069802     80.633428
PR02  -9196.174680 -13113.164676 -19826.676486    481.802550
PR03 -10657.637695   6068.830285 -22311.177968     37.395027
PR04  -5938.708497  21555.486737 -12243.377008     90.579171
PR05   1907.074631  24995.383885   4680.153121     73.273888
PR07  10616.672202  -6854.965367  22206.337143    -42.383200
PR08   6008.722676 -21580.518976  12276.882519    -59.435611
PR09  22094.207581  12819.076272    496.139751     -2.884146
PR11   6546.376774  -8770.224035 -23029.711597    -10.691417
PR12 -11192.797706 -15678.012780 -16703.004308    235.871501
PR13 -21883.672408 -13047.407534  -1211.912610    -56.022818
PR14 -19767.074999  -2561.090229  15918.980408     65.169804
PR15  -6218.270944   9102.278715  23023.951542    103.344081
PR16  12301.091384  15578.256833  15923.803743    -16.166938
PR17 -22763.299539   9069.149016   7157.121804    431.284293
PR18 -18087.951853  15053.356848  -9768.715573     79.479495
PR19  -5033.902043  13261.999236 -21206.938217   -147.120706
PR20  14286.194046   3033.177351 -20924.753300    -50.599621
PR21  22833.242222  -9648.439072  -5971.948681   -215.354966
PR22  17618.095738 -15094.706709  10692.879390   -116.886648
PR24 -15065.683910  -2721.400772  20416.066497     45.901445
EOF
